$$SOE
2460728.500000000, A.D. 2025-Feb-22 00:00:00.0000, -1.287743004465278E+08, -3.258441054556085E+08, 8.530109607844770E+07,
2460735.500000000, A.D. 2025-Mar-01 00:00:00.0000, -1.169346921514506E+08, -3.285785381120988E+08, 8.431278811949605E+07,
2460742.500000000, A.D. 2025-Mar-08 00:00:00.0000, -1.049722366744653E+08, -3.309677621582484E+08, 8.323588791789916E+07,
2460749.500000000, A.D. 2025-Mar-15 00:00:00.0000, -9.289786238584059E+07, -3.330041020741632E+08, 8.207022831644276E+07,
2460756.500000000, A.D. 2025-Mar-22 00:00:00.0000, -8.072299200468551E+07, -3.346801835237766E+08, 8.081577105853578E+07,
2460763.500000000, A.D. 2025-Mar-29 00:00:00.0000, -6.845953914318793E+07, -3.359889703288763E+08, 7.947261351999134E+07,
2460770.500000000, A.D. 2025-Apr-05 00:00:00.0000, -5.611990049193487E+07, -3.369238015354522E+08, 7.804099521160032E+07,
2460777.500000000, A.D. 2025-Apr-12 00:00:00.0000, -4.371694538587379E+07, -3.374784282796530E+08, 7.652130417388064E+07,
2460784.500000000, A.D. 2025-Apr-19 00:00:00.0000, -3.126400276360245E+07, -3.376470511163961E+08, 7.491408314062381E+07,
2460791.500000000, A.D. 2025-Apr-26 00:00:00.0000, -1.877484509027718E+07, -3.374243577662784E+08, 7.322003535717282E+07,
2460798.500000000, A.D. 2025-May-03 00:00:00.0000, -6.263668993247680E+06, -3.368055609855562E+08, 7.144002996852720E+07,
2460805.500000000, A.D. 2025-May-10 00:00:00.0000, 6.254927529918463E+06, -3.357864362472466E+08, 6.957510689685068E+07,
2460812.500000000, A.D. 2025-May-17 00:00:00.0000, 1.876597144845093E+07, -3.343633589453471E+08, 6.762648112167630E+07,
2460819.500000000, A.D. 2025-May-24 00:00:00.0000, 3.125414479955314E+07, -3.325333408224725E+08, 6.559554626103326E+07,
2460826.500000000, A.D. 2025-May-31 00:00:00.0000, 4.370381897979146E+07, -3.302940649334771E+08, 6.348387735866409E+07,
2460833.500000000, A.D. 2025-Jun-07 00:00:00.0000, 5.609909279537147E+07, -3.276439175489241E+08, 6.129323293337315E+07,
2460840.500000000, A.D. 2025-Jun-14 00:00:00.0000, 6.842383183231783E+07, -3.245820172670489E+08, 5.902555637996298E+07,
2460847.500000000, A.D. 2025-Jun-21 00:00:00.0000, 8.066171023870429E+07, -3.211082442070852E+08, 5.668297627792905E+07,
2460854.500000000, A.D. 2025-Jun-28 00:00:00.0000, 9.279625786742646E+07, -3.172232671270323E+08, 5.426780540903890E+07,
2460861.500000000, A.D. 2025-Jul-05 00:00:00.0000, 1.048109110256704E+08, -3.129285659254034E+08, 5.178253875048089E+07,
2460868.500000000, A.D. 2025-Jul-12 00:00:00.0000, 1.166890653485547E+08, -3.082264499592289E+08, 4.922985044561262E+07,
2460875.500000000, A.D. 2025-Jul-19 00:00:00.0000, 1.284141306450525E+08, -3.031200724000509E+08, 4.661258965645432E+07,
2460882.500000000, A.D. 2025-Jul-26 00:00:00.0000, 1.399695875380792E+08, -2.976134403613350E+08, 4.393377525567810E+07,
2460889.500000000, A.D. 2025-Aug-02 00:00:00.0000, 1.513390455328170E+08, -2.917114204920364E+08, 4.119658935074773E+07,
2460896.500000000, A.D. 2025-Aug-09 00:00:00.0000, 1.625063020667615E+08, -2.854197398149237E+08, 3.840436965015639E+07,
2460903.500000000, A.D. 2025-Aug-16 00:00:00.0000, 1.734554021166493E+08, -2.787449816924163E+08, 3.556060069009955E+07,
2460910.500000000, A.D. 2025-Aug-23 00:00:00.0000, 1.841706981279886E+08, -2.716945767870706E+08, 3.266890394449452E+07,
2460917.500000000, A.D. 2025-Aug-30 00:00:00.0000, 1.946369100492778E+08, -2.642767882552345E+08, 2.973302691133125E+07,
2460924.500000000, A.D. 2025-Sep-06 00:00:00.0000, 2.048391834929637E+08, -2.565006901938656E+08, 2.675683146556844E+07,
2460931.500000000, A.D. 2025-Sep-13 00:00:00.0000, 2.147631437904558E+08, -2.483761419076821E+08, 2.374428151914616E+07,
2460938.500000000, A.D. 2025-Sep-20 00:00:00.0000, 2.243949486649908E+08, -2.399137597900937E+08, 2.069942965597227E+07,
2460945.500000000, A.D. 2025-Sep-27 00:00:00.0000, 2.337213400566210E+08, -2.311248839253546E+08, 1.762640301413983E+07,
2460952.500000000, A.D. 2025-Oct-04 00:00:00.0000, 2.427296925902596E+08, -2.220215391594485E+08, 1.452938876963875E+07,
2460959.500000000, A.D. 2025-Oct-11 00:00:00.0000, 2.514080578605333E+08, -2.126163919296597E+08, 1.141261931114632E+07,
2460966.500000000, A.D. 2025-Oct-18 00:00:00.0000, 2.597452044135146E+08, -2.029227035281858E+08, 8.280357194736399E+06,
2460973.500000000, A.D. 2025-Oct-25 00:00:00.0000, 2.677306532179129E+08, -1.929542802371383E+08, 5.136880006458260E+06,
2460980.500000000, A.D. 2025-Nov-01 00:00:00.0000, 2.753547083803633E+08, -1.827254208073487E+08, 1.986465270256579E+06,
2460987.500000000, A.D. 2025-Nov-08 00:00:00.0000, 2.826084829197011E+08, -1.722508618303708E+08, -1.166624467469454E+06,
2460994.500000000, A.D. 2025-Nov-15 00:00:00.0000, 2.894839195952185E+08, -1.615457215983123E+08, -4.318156263254382E+06,
2461001.500000000, A.D. 2025-Nov-22 00:00:00.0000, 2.959738071103657E+08, -1.506254427742077E+08, -7.463941005828716E+06,
2461008.500000000, A.D. 2025-Nov-29 00:00:00.0000, 3.020717915336140E+08, -1.395057332833771E+08, -1.059984702564159E+07,
2461015.500000000, A.D. 2025-Dec-06 00:00:00.0000, 3.077723807218348E+08, -1.282025061043195E+08, -1.372181278141161E+07,
2461022.500000000, A.D. 2025-Dec-13 00:00:00.0000, 3.130709422982960E+08, -1.167318218514612E+08, -1.682585884685455E+07,
2461029.500000000, A.D. 2025-Dec-20 00:00:00.0000, 3.179636988538250E+08, -1.051098336155822E+08, -1.990809935535563E+07,
2461036.500000000, A.D. 2025-Dec-27 00:00:00.0000, 3.224477195308141E+08, -9.335273192624816E+07, -2.296475252673578E+07,
2461043.500000000, A.D. 2026-Jan-03 00:00:00.0000, 3.265209068122814E+08, -8.147669087000245E+07, -2.599215014144532E+07,
2461050.500000000, A.D. 2026-Jan-10 00:00:00.0000, 3.301819789452046E+08, -6.949781641693279E+07, -2.898674599121662E+07,
2461057.500000000, A.D. 2026-Jan-17 00:00:00.0000, 3.334304485810611E+08, -5.743209737227596E+07, -3.194512331272909E+07,
2461064.500000000, A.D. 2026-Jan-24 00:00:00.0000, 3.362665980858244E+08, -4.529535920506562E+07, -3.486400120105430E+07,
2461071.500000000, A.D. 2026-Jan-31 00:00:00.0000, 3.386914519338454E+08, -3.310322098524810E+07, -3.774024001019374E+07,
2461078.500000000, A.D. 2026-Feb-07 00:00:00.0000, 3.407067466467633E+08, -2.087105566157892E+07, -4.057084576777378E+07,
2461085.500000000, A.D. 2026-Feb-14 00:00:00.0000, 3.423148989282306E+08, -8.613953823836906E+06, -4.335297365563826E+07,
2461092.500000000, A.D. 2026-Feb-21 00:00:00.0000, 3.435189727674568E+08, 3.653309547662470E+06, -4.608393057975403E+07,
2461099.500000000, A.D. 2026-Feb-28 00:00:00.0000, 3.443226448018516E+08, 1.591630646885807E+07, -4.876117667708854E+07,
2461106.500000000, A.D. 2026-Mar-07 00:00:00.0000, 3.447301662473453E+08, 2.816098353571238E+07, -5.138232577872135E+07,
2461113.500000000, A.D. 2026-Mar-14 00:00:00.0000, 3.447463245167630E+08, 4.037368341896845E+07, -5.394514532838463E+07,
2461120.500000000, A.D. 2026-Mar-21 00:00:00.0000, 3.443764066317502E+08, 5.254116325250317E+07, -5.644755574115038E+07,
2461127.500000000, A.D. 2026-Mar-28 00:00:00.0000, 3.436261627251499E+08, 6.465061105535705E+07, -5.888762899681255E+07,
2461134.500000000, A.D. 2026-Apr-04 00:00:00.0000, 3.425017693107961E+08, 7.668965935129465E+07, -6.126358655702648E+07,
2461141.500000000, A.D. 2026-Apr-11 00:00:00.0000, 3.410097928426406E+08, 8.864639577260458E+07, -6.357379672591904E+07,
2461148.500000000, A.D. 2026-Apr-18 00:00:00.0000, 3.391571539381951E+08, 1.005093708044269E+08, -6.581677153283998E+07,
2461155.500000000, A.D. 2026-Apr-25 00:00:00.0000, 3.369510924982299E+08, 1.122676028606080E+08, -6.799116320179833E+07,
2461162.500000000, A.D. 2026-May-02 00:00:00.0000, 3.343991339123913E+08, 1.239105808470314E+08, -7.009576027229320E+07,
2461169.500000000, A.D. 2026-May-09 00:00:00.0000, 3.315090566091206E+08, 1.354282643368133E+08, -7.212948344566952E+07,
2461176.500000000, A.D. 2026-May-16 00:00:00.0000, 3.282888614371142E+08, 1.468110816864972E+08, -7.409138123493084E+07,
2461183.500000000, A.D. 2026-May-23 00:00:00.0000, 3.247467430123858E+08, 1.580499273034795E+08, -7.598062538921215E+07,
2461190.500000000, A.D. 2026-May-30 00:00:00.0000, 3.208910610111006E+08, 1.691361585734952E+08, -7.779650592187071E+07,
2461197.500000000, A.D. 2026-Jun-06 00:00:00.0000, 3.167303111386843E+08, 1.800615893616299E+08, -7.953842602608345E+07,
2461204.500000000, A.D. 2026-Jun-13 00:00:00.0000, 3.122730994706345E+08, 1.908184804586491E+08, -8.120589723965666E+07,
2461211.500000000, A.D. 2026-Jun-20 00:00:00.0000, 3.075281196699840E+08, 2.013995300631627E+08, -8.279853460921025E+07,
2461218.500000000, A.D. 2026-Jun-27 00:00:00.0000, 3.025041313760246E+08, 2.117978641185876E+08, -8.431605175771007E+07,
2461225.500000000, A.D. 2026-Jul-04 00:00:00.0000, 2.972099397468719E+08, 2.220070258794597E+08, -8.575825594780479E+07,
2461232.500000000, A.D. 2026-Jul-11 00:00:00.0000, 2.916543763820662E+08, 2.320209647141117E+08, -8.712504320076381E+07,
2461239.500000000, A.D. 2026-Jul-18 00:00:00.0000, 2.858462816810619E+08, 2.418340242979483E+08, -8.841639349975194E+07,
2461246.500000000, A.D. 2026-Jul-25 00:00:00.0000, 2.797944886176898E+08, 2.514409303182527E+08, -8.963236609861274E+07,
2461253.500000000, A.D. 2026-Aug-01 00:00:00.0000, 2.735078079284142E+08, 2.608367777506177E+08, -9.077309496076097E+07,
2461260.500000000, A.D. 2026-Aug-08 00:00:00.0000, 2.669950148747588E+08, 2.700170177697410E+08, -9.183878436460829E+07,
2461267.500000000, A.D. 2026-Aug-15 00:00:00.0000, 2.602648379379058E+08, 2.789774448333729E+08, -9.282970468836622E+07,
2461274.500000000, A.D. 2026-Aug-22 00:00:00.0000, 2.533259486235110E+08, 2.877141852368628E+08, -9.374618821264702E+07,
2461281.500000000, A.D. 2026-Aug-29 00:00:00.0000, 2.461869500211491E+08, 2.962236858345685E+08, -9.458862484760351E+07,
2461288.500000000, A.D. 2026-Sep-05 00:00:00.0000, 2.388563661893755E+08, 3.045027001268609E+08, -9.535745822064011E+07,
2461295.500000000, A.D. 2026-Sep-12 00:00:00.0000, 2.313426347621558E+08, 3.125482742629395E+08, -9.605318215067929E+07,
$$EOE